IRIDIUM 155             
1 43573U 18061E   26067.57465768 -.00000030  00000+0 -17669-4 0  9994
2 43573  86.3915  98.7629 0001967  93.8830 266.2590 14.34217330398931
IRIDIUM 154             
1 43574U 18061F   26067.62540126  .00000042  00000+0  78104-5 0  9996
2 43574  86.3917  98.8702 0002229  97.9154 262.2295 14.34219003398996
IRIDIUM 163             
1 43575U 18061G   26067.60637022  .00000264  00000+0  87377-4 0  9994
2 43575  86.3917  98.7972 0002177  90.9353 269.2092 14.34218262398966
IRIDIUM 156             
1 43576U 18061H   26067.51123089 -.00000012  00000+0 -11233-4 0  9999
2 43576  86.3917  98.8439 0001916  95.3517 264.7898 14.34217608398942
IRIDIUM 164             
1 43577U 18061J   26067.56197310  .00000040  00000+0  73532-5 0  9993
2 43577  86.3912  98.8615 0002369  99.2950 260.8514 14.34217686398994
IRIDIUM 159             
1 43578U 18061K   26067.60002863 -.00000028  00000+0 -16890-4 0  9998
2 43578  86.3915  98.7843 0002238  90.6432 269.5020 14.34217362398961
IRIDIUM 180             
1 43922U 19002A   26067.59952517  .00000227  00000+0  73844-4 0  9996
2 43922  86.3972  35.6205 0002297  84.9707 275.1751 14.34218227374571
IRIDIUM 176             
1 43923U 19002B   26067.43084859  .00001512  00000+0  23586-3 0  9990
2 43923  86.6093  35.6484 0002447  89.3940 270.7558 14.72257423384427
IRIDIUM 168             
1 43924U 19002C   26067.45364552  .00000410  00000+0  13930-3 0  9992
2 43924  86.3972  35.7560 0002186  86.4688 273.6758 14.34215863374539
IRIDIUM 173             
1 43925U 19002D   26067.44095934  .00000031  00000+0  39942-5 0  9999
2 43925  86.3972  35.6543 0002108  83.5096 276.6339 14.34216746374512
IRIDIUM 169             
1 43926U 19002E   26067.53548263  .00000215  00000+0  63645-4 0  9998
2 43926  86.4170  67.2697 0001444  80.9492 279.1870 14.38611917375756
IRIDIUM 172             
1 43927U 19002F   26067.43461522  .00000413  00000+0  14043-3 0  9997
2 43927  86.3969  35.6644 0002350  85.5554 274.5910 14.34216837374526
IRIDIUM 175             
1 43928U 19002G   26067.49423341  .00000797  00000+0  12255-3 0  9999
2 43928  86.1548 333.2272 0002561 106.1390 254.0108 14.72226175384424
IRIDIUM 171             
1 43929U 19002H   26067.62489551  .00000038  00000+0  66735-5 0  9992
2 43929  86.3981  35.8802 0002113  91.8011 268.3427 14.34217548374541
IRIDIUM 170             
1 43930U 19002J   26067.50499125  .00001473  00000+0  22962-3 0  9995
2 43930  86.6093  35.6204 0002733  89.1262 271.0268 14.72258910384444
IRIDIUM 167             
1 43931U 19002K   26067.40924653 -.00000017  00000+0 -13240-4 0  9999
2 43931  86.3969  35.6971 0001756  92.4512 267.6885 14.34217293374514
IRIDIUM 181             
1 56726U 23068S   26067.57882757  .00000421  00000+0  11911-3 0  9997
2 56726  86.4458  98.8639 0002594  98.0872 262.0624 14.43307385147923
IRIDIUM 177             
1 56727U 23068T   26067.39335189  .00002212  00000+0  28777-3 0  9998
2 56727  86.2011  16.6381 0002360  74.2751 285.8730 14.80205136151458
IRIDIUM 174             
1 56728U 23068U   26067.42466845  .00002553  00000+0  40094-3 0  9991
2 56728  86.6100  35.7913 0002605  79.6211 280.5300 14.72248519151196
IRIDIUM 178             
1 56729U 23068V   26067.51768054  .00000764  00000+0  97112-4 0  9995
2 56729  86.6485  67.4282 0002443 100.6917 259.4580 14.80236250151476
IRIDIUM 179             
1 56730U 23068W   26067.51230970  .00000704  00000+0  89239-4 0  9993
2 56730  86.6720  76.1187 0002308  94.9574 265.1911 14.80237040151475
